start=new Date('2022-05-20T00:00:00.000Z').valueOf();
sats=[{"TLE_LINE1":"1 50167U 21125M   22139.91667824 -.00006146  00000-0 -36850-3 0  9994","CLASSIFICATION_TYPE":"U","REV_AT_EPOCH":"130","MEAN_MOTION":"15.08824827","SITE":"AFWTR","ELEMENT_SET_NO":"999","FILE":"3453812","MEAN_ELEMENT_THEORY":"SGP4","RCS_SIZE":"LARGE","DECAY_DATE":null,"TLE_LINE2":"2 50167  53.2182  18.0495 0002354  35.9538  52.3691 15.08824827  1301","OBJECT_ID":"2021-125M","SEMIMAJOR_AXIS":"6917.927","ECCENTRICITY":"0.00023540","GP_ID":"203990322","EPHEMERIS_TYPE":"0","PERIOD":"95.439","INCLINATION":"53.2182","TIME_SYSTEM":"UTC","BSTAR":"-0.00036850000000","ARG_OF_PERICENTER":"35.9538","OBJECT_NAME":"STARLINK-3271","EPOCH":"2022-05-19T22:00:00.999936","OBJECT_TYPE":"PAYLOAD","CENTER_NAME":"EARTH","COUNTRY_CODE":"US","APOAPSIS":"541.420","MEAN_MOTION_DOT":"-0.00006146","PERIAPSIS":"538.163","LAUNCH_DATE":"2021-12-18","MEAN_MOTION_DDOT":"0.0000000000000","NORAD_CAT_ID":"50167","RA_OF_ASC_NODE":"18.0495","MEAN_ANOMALY":"52.3691","REF_FRAME":"TEME"},{"LAUNCH_DATE":"2021-12-18","PERIAPSIS":"538.571","MEAN_MOTION_DDOT":"0.0000000000000","NORAD_CAT_ID":"50168","APOAPSIS":"540.940","MEAN_MOTION_DOT":"-0.00000182","MEAN_ANOMALY":"259.8113","RA_OF_ASC_NODE":"8.0481","REF_FRAME":"TEME","BSTAR":"0.00000668610000","ARG_OF_PERICENTER":"43.4574","OBJECT_NAME":"STARLINK-3296","EPOCH":"2022-05-19T22:00:00.999936","TIME_SYSTEM":"UTC","COUNTRY_CODE":"US","OBJECT_TYPE":"PAYLOAD","CENTER_NAME":"EARTH","OBJECT_ID":"2021-125N","SEMIMAJOR_AXIS":"6917.891","ECCENTRICITY":"0.00017120","TLE_LINE2":"2 50168  53.2174   8.0481 0001712  43.4574 259.8113 15.08836582  1302","INCLINATION":"53.2174","PERIOD":"95.438","GP_ID":"203988571","EPHEMERIS_TYPE":"0","TLE_LINE1":"1 50168U 21125N   22139.91667824 -.00000182  00000-0  66861-5 0  9995","CLASSIFICATION_TYPE":"U","FILE":"3453812","RCS_SIZE":"LARGE","MEAN_ELEMENT_THEORY":"SGP4","DECAY_DATE":null,"REV_AT_EPOCH":"130","ELEMENT_SET_NO":"999","SITE":"AFWTR","MEAN_MOTION":"15.08836582"},{"COUNTRY_CODE":"US","CENTER_NAME":"EARTH","OBJECT_TYPE":"PAYLOAD","BSTAR":"-0.00175920000000","ARG_OF_PERICENTER":"36.5817","OBJECT_NAME":"STARLINK-3301","EPOCH":"2022-05-19T22:00:00.999936","TIME_SYSTEM":"UTC","RA_OF_ASC_NODE":"8.0603","MEAN_ANOMALY":"66.7221","REF_FRAME":"TEME","LAUNCH_DATE":"2021-12-18","PERIAPSIS":"538.239","MEAN_MOTION_DDOT":"0.0000000000000","NORAD_CAT_ID":"50169","APOAPSIS":"541.200","MEAN_MOTION_DOT":"-0.00028184","FILE":"3453812","RCS_SIZE":"LARGE","MEAN_ELEMENT_THEORY":"SGP4","DECAY_DATE":null,"REV_AT_EPOCH":"130","SITE":"AFWTR","ELEMENT_SET_NO":"999","MEAN_MOTION":"15.08848401","TLE_LINE1":"1 50169U 21125P   22139.91667824 -.00028184  00000-0 -17592-2 0  9993","CLASSIFICATION_TYPE":"U","INCLINATION":"53.2184","PERIOD":"95.437","GP_ID":"203988821","EPHEMERIS_TYPE":"0","SEMIMAJOR_AXIS":"6917.855","OBJECT_ID":"2021-125P","ECCENTRICITY":"0.00021400","TLE_LINE2":"2 50169  53.2184   8.0603 0002140  36.5817  66.7221 15.08848401  1307"},{"MEAN_ANOMALY":"299.3872","RA_OF_ASC_NODE":"8.0501","REF_FRAME":"TEME","APOAPSIS":"540.973","MEAN_MOTION_DOT":"-0.00033475","LAUNCH_DATE":"2021-12-18","PERIAPSIS":"538.471","MEAN_MOTION_DDOT":"0.0000000000000","NORAD_CAT_ID":"50170","CENTER_NAME":"EARTH","OBJECT_TYPE":"PAYLOAD","COUNTRY_CODE":"US","TIME_SYSTEM":"UTC","BSTAR":"-0.00209450000000","ARG_OF_PERICENTER":"43.9244","OBJECT_NAME":"STARLINK-3245","EPOCH":"2022-05-19T22:00:00.999936","GP_ID":"203990072","EPHEMERIS_TYPE":"0","PERIOD":"95.437","INCLINATION":"53.2164","TLE_LINE2":"2 50170  53.2164   8.0501 0001809  43.9244 299.3872 15.08847638  1308","SEMIMAJOR_AXIS":"6917.857","OBJECT_ID":"2021-125Q","ECCENTRICITY":"0.00018090","REV_AT_EPOCH":"130","MEAN_MOTION":"15.08847638","SITE":"AFWTR","ELEMENT_SET_NO":"999","FILE":"3453812","RCS_SIZE":"LARGE","MEAN_ELEMENT_THEORY":"SGP4","DECAY_DATE":null,"TLE_LINE1":"1 50170U 21125Q   22139.91667824 -.00033475  00000-0 -20945-2 0  9990","CLASSIFICATION_TYPE":"U"},{"GP_ID":"203989823","EPHEMERIS_TYPE":"0","INCLINATION":"53.2163","PERIOD":"95.438","TLE_LINE2":"2 50171  53.2163   8.0520 0001907  47.9421 215.3323 15.08829610  1308","ECCENTRICITY":"0.00019070","SEMIMAJOR_AXIS":"6917.912","OBJECT_ID":"2021-125R","SITE":"AFWTR","MEAN_MOTION":"15.08829610","ELEMENT_SET_NO":"999","REV_AT_EPOCH":"130","DECAY_DATE":null,"RCS_SIZE":"LARGE","FILE":"3453812","MEAN_ELEMENT_THEORY":"SGP4","CLASSIFICATION_TYPE":"U","TLE_LINE1":"1 50171U 21125R   22139.91667824  .00012592  00000-0  80808-3 0  9991","RA_OF_ASC_NODE":"8.0520","MEAN_ANOMALY":"215.3323","REF_FRAME":"TEME","APOAPSIS":"541.096","MEAN_MOTION_DOT":"0.00012592","MEAN_MOTION_DDOT":"0.0000000000000","NORAD_CAT_ID":"50171","LAUNCH_DATE":"2021-12-18","PERIAPSIS":"538.458","OBJECT_TYPE":"PAYLOAD","CENTER_NAME":"EARTH","COUNTRY_CODE":"US","TIME_SYSTEM":"UTC","EPOCH":"2022-05-19T22:00:00.999936","BSTAR":"0.00080808000000","ARG_OF_PERICENTER":"47.9421","OBJECT_NAME":"STARLINK-3286"},{"REF_FRAME":"TEME","MEAN_ANOMALY":"345.0034","RA_OF_ASC_NODE":"8.0618","MEAN_MOTION_DOT":"0.00006064","APOAPSIS":"541.413","MEAN_MOTION_DDOT":"0.0000000000000","NORAD_CAT_ID":"50172","LAUNCH_DATE":"2021-12-18","PERIAPSIS":"538.188","CENTER_NAME":"EARTH","OBJECT_TYPE":"PAYLOAD","COUNTRY_CODE":"US","TIME_SYSTEM":"UTC","EPOCH":"2022-05-19T22:00:00.999936","OBJECT_NAME":"STARLINK-3287","ARG_OF_PERICENTER":"38.3294","BSTAR":"0.00039897000000","EPHEMERIS_TYPE":"0","GP_ID":"203989071","INCLINATION":"53.2183","PERIOD":"95.439","TLE_LINE2":"2 50172  53.2183   8.0618 0002331  38.3294 345.0034 15.08821868  1300","ECCENTRICITY":"0.00023310","SEMIMAJOR_AXIS":"6917.936","OBJECT_ID":"2021-125S","ELEMENT_SET_NO":"999","SITE":"AFWTR","MEAN_MOTION":"15.08821868","REV_AT_EPOCH":"130","DECAY_DATE":null,"FILE":"3453812","RCS_SIZE":"LARGE","MEAN_ELEMENT_THEORY":"SGP4","CLASSIFICATION_TYPE":"U","TLE_LINE1":"1 50172U 21125S   22139.91667824  .00006064  00000-0  39897-3 0  9991"},{"MEAN_MOTION_DOT":"0.00018858","APOAPSIS":"544.260","MEAN_MOTION_DDOT":"0.0000000000000","NORAD_CAT_ID":"50173","PERIAPSIS":"535.366","LAUNCH_DATE":"2021-12-18","REF_FRAME":"TEME","MEAN_ANOMALY":"304.0796","RA_OF_ASC_NODE":"357.9884","TIME_SYSTEM":"UTC","EPOCH":"2022-05-19T22:00:00.999936","OBJECT_NAME":"STARLINK-3289","ARG_OF_PERICENTER":"289.0188","BSTAR":"0.00120010000000","OBJECT_TYPE":"PAYLOAD","CENTER_NAME":"EARTH","COUNTRY_CODE":"US","TLE_LINE2":"2 50173  53.2247 357.9884 0006428 289.0188 304.0796 15.08817898  1309","ECCENTRICITY":"0.00064280","OBJECT_ID":"2021-125T","SEMIMAJOR_AXIS":"6917.948","EPHEMERIS_TYPE":"0","GP_ID":"203989321","PERIOD":"95.439","INCLINATION":"53.2247","CLASSIFICATION_TYPE":"U","TLE_LINE1":"1 50173U 21125T   22139.91667824  .00018858  00000-0  12001-2 0  9993","SITE":"AFWTR","ELEMENT_SET_NO":"999","MEAN_MOTION":"15.08817898","REV_AT_EPOCH":"130","DECAY_DATE":null,"FILE":"3453812","MEAN_ELEMENT_THEORY":"SGP4","RCS_SIZE":"LARGE"},{"REV_AT_EPOCH":"130","SITE":"AFWTR","MEAN_MOTION":"15.08823657","ELEMENT_SET_NO":"999","FILE":"3453812","RCS_SIZE":"LARGE","MEAN_ELEMENT_THEORY":"SGP4","DECAY_DATE":null,"TLE_LINE1":"1 50174U 21125U   22139.91667824 -.00003498  00000-0 -20187-3 0  9995","CLASSIFICATION_TYPE":"U","GP_ID":"203989573","EPHEMERIS_TYPE":"0","PERIOD":"95.439","INCLINATION":"53.2183","TLE_LINE2":"2 50174  53.2183   8.0599 0002088  41.8527  41.4586 15.08823657  1304","OBJECT_ID":"2021-125U","SEMIMAJOR_AXIS":"6917.930","ECCENTRICITY":"0.00020880","CENTER_NAME":"EARTH","OBJECT_TYPE":"PAYLOAD","COUNTRY_CODE":"US","TIME_SYSTEM":"UTC","BSTAR":"-0.00020187000000","ARG_OF_PERICENTER":"41.8527","OBJECT_NAME":"STARLINK-3292","EPOCH":"2022-05-19T22:00:00.999936","MEAN_ANOMALY":"41.4586","RA_OF_ASC_NODE":"8.0599","REF_FRAME":"TEME","APOAPSIS":"541.240","MEAN_MOTION_DOT":"-0.00003498","PERIAPSIS":"538.351","LAUNCH_DATE":"2021-12-18","MEAN_MOTION_DDOT":"0.0000000000000","NORAD_CAT_ID":"50174"},{"PERIOD":"95.437","INCLINATION":"53.2177","EPHEMERIS_TYPE":"0","GP_ID":"203990323","ECCENTRICITY":"0.00017260","SEMIMAJOR_AXIS":"6917.868","OBJECT_ID":"2021-125V","TLE_LINE2":"2 50175  53.2177   8.0513 0001726  48.8023 274.5233 15.08844100  1304","DECAY_DATE":null,"RCS_SIZE":"LARGE","FILE":"3453812","MEAN_ELEMENT_THEORY":"SGP4","SITE":"AFWTR","MEAN_MOTION":"15.08844100","ELEMENT_SET_NO":"999","REV_AT_EPOCH":"130","CLASSIFICATION_TYPE":"U","TLE_LINE1":"1 50175U 21125V   22139.91667824 -.00034695  00000-0 -21721-2 0  9993","REF_FRAME":"TEME","RA_OF_ASC_NODE":"8.0513","MEAN_ANOMALY":"274.5233","NORAD_CAT_ID":"50175","MEAN_MOTION_DDOT":"0.0000000000000","PERIAPSIS":"538.539","LAUNCH_DATE":"2021-12-18","MEAN_MOTION_DOT":"-0.00034695","APOAPSIS":"540.927","COUNTRY_CODE":"US","OBJECT_TYPE":"PAYLOAD","CENTER_NAME":"EARTH","EPOCH":"2022-05-19T22:00:00.999936","OBJECT_NAME":"STARLINK-3291","ARG_OF_PERICENTER":"48.8023","BSTAR":"-0.00217210000000","TIME_SYSTEM":"UTC"},{"TLE_LINE2":"2 50176  53.2185   8.0594 0002203  32.8940  30.4272 15.08833219  1306","ECCENTRICITY":"0.00022030","SEMIMAJOR_AXIS":"6917.901","OBJECT_ID":"2021-125W","EPHEMERIS_TYPE":"0","GP_ID":"203988572","INCLINATION":"53.2185","PERIOD":"95.438","CLASSIFICATION_TYPE":"U","TLE_LINE1":"1 50176U 21125W   22139.91667824  .00005703  00000-0  37617-3 0  9992","ELEMENT_SET_NO":"999","SITE":"AFWTR","MEAN_MOTION":"15.08833219","REV_AT_EPOCH":"130","DECAY_DATE":null,"MEAN_ELEMENT_THEORY":"SGP4","FILE":"3453812","RCS_SIZE":"LARGE","MEAN_MOTION_DOT":"0.00005703","APOAPSIS":"541.290","NORAD_CAT_ID":"50176","MEAN_MOTION_DDOT":"0.0000000000000","LAUNCH_DATE":"2021-12-18","PERIAPSIS":"538.242","REF_FRAME":"TEME","RA_OF_ASC_NODE":"8.0594","MEAN_ANOMALY":"30.4272","TIME_SYSTEM":"UTC","EPOCH":"2022-05-19T22:00:00.999936","OBJECT_NAME":"STARLINK-3293","ARG_OF_PERICENTER":"32.8940","BSTAR":"0.00037617000000","OBJECT_TYPE":"PAYLOAD","CENTER_NAME":"EARTH","COUNTRY_CODE":"US"}];
